S-NET C                 
1 43189U 18014K   23066.19273562  .00008362  00000+0  68532-3 0  9996
2 43189  97.6416 331.7825 0011008 135.4002 224.8109 14.99466320276818
FENGMANIU-1 (FMN-1)     
1 43192U 18015A   23066.24489788  .00895918  33749-3  28797-2 0  9995
2 43192  97.5466 229.0357 0008186 252.6557 232.6353 15.90936527284174
SHAONIAN XING           
1 43199U 18015H   23066.26000579  .00105118  00000+0  17524-2 0  9993
2 43199  97.5365 219.1399 0010518 192.3795 268.9110 15.51557877283896
LUOJIA-1 01             
1 43485U 18048B   23066.20759000  .00004127  00000+0  57438-3 0  9998
2 43485  97.9108 148.0902 0012027  73.4006 286.8552 14.78288175256679
CZ-4B R/B               
1 43656U 18081B   23066.13235845  .00000990  00000+0  31489-3 0  9995
2 43656  99.4327 226.7554 0208512 109.9416 252.4356 14.30757725227918
CUBEBEL-1 (BSUSAT-1)    
1 43666U 18083E   23066.18285779  .00038419  00000+0  12659-2 0  9998
2 43666  97.3944  97.6058 0012533 123.0981 286.8235 15.31288573241550
CHANGSHAGAOXIN (TY 4-01)
1 43669U 18083H   23066.22105622  .00033939  00000+0  12096-2 0  9991
2 43669  97.3939  92.7520 0009756 123.2195 307.3837 15.28794318241337
TEN-KOH                 
1 43677U 18084G   23066.12399649  .00007173  00000+0  70637-3 0  9991
2 43677  97.9947 204.2960 0016373 124.1089 236.1685 14.92278346236831
DIWATA-2B               
1 43678U 18084H   23066.19912946  .00003021  00000+0  29661-3 0  9999
2 43678  98.0022 208.2463 0010276 134.4377 225.7729 14.92933458237049
STARS-AO                
1 43679U 18084J   23065.35194814  .00012362  00000+0  11188-2 0  9995
2 43679  98.0057 210.1323 0009300 139.9134 220.2774 14.95522917237050
AUTCUBE 2               
1 43681U 18084K   23066.10590859  .00008374  00000+0  77976-3 0  9997
2 43681  98.0016 209.1061 0009398 134.0322 226.1673 14.94512939237052
METOP-C                 
1 43689U 18087A   23066.12957239  .00000374  00000+0  19100-3 0  9996
2 43689  98.6967 127.2349 0003037  20.3188 339.8109 14.21502078224629
ES'HAIL 2               
1 43700U 18090A   23066.01124437  .00000143  00000+0  00000+0 0  9997
2 43700   0.0272 252.1647 0001097  79.9310 222.2006  1.00270430 15906
FACSAT-1                
1 43721U 18096C   23066.21790175  .00139509  00000+0  18254-2 0  9998
2 43721  97.3207 153.1818 0010191 187.7261 256.6487 15.58085766238505
CENTAURI-2              
1 43722U 18096D   23065.82012142  .00777870  24211-3  27450-2 0  9997
2 43722  97.3202 158.1216 0008363 240.3040 119.7400 15.89056272238752
3CAT-1                  
1 43728U 18096K   23065.00752238  .00546991  00000+0  26591-2 0  9999
2 43728  97.3254 157.7609 0007493 224.4898 135.5769 15.80981390238644
REAKTOR HELLO WORLD     
1 43743U 18096AA  23066.21578420  .00074332  00000+0  15076-2 0  9990
2 43743  97.3268 151.2702 0012273 191.2888 168.8087 15.46033408238351
ELYSIUM STAR 2 & LFF    
1 43760U 18099C   23066.18955197  .00028445  00000+0  21037-2 0  9996
2 43760  97.5806 134.0665 0010269  94.4232 265.8167 15.03097686232517
2018-099D               
1 43761U 18099D   23066.15524079  .00004708  00000+0  41398-3 0  9994
2 43761  97.5865 130.5035 0014751 105.8467 254.4413 14.96918145232300
AISTECHSAT 2            
1 43768U 18099L   23066.10482806  .00008963  00000+0  77471-3 0  9995
2 43768  97.5807 128.8514 0012091 107.8123 252.4420 14.97371517231965
FOX-1CLIFF (AO-95)      
1 43770U 18099N   23066.11160007  .00011393  00000+0  95446-3 0  9998
2 43770  97.5849 130.4211 0014906 114.5532 245.7246 14.98489280232312
RANGE-A                 
1 43772U 18099Q   23066.15454058  .00014018  00000+0  11339-2 0  9991
2 43772  97.5996 132.8866 0012821  95.2427 265.0260 14.99815345232363
RANGE-B                 
1 43773U 18099R   23066.14074742  .00007622  00000+0  65652-3 0  9990
2 43773  97.5788 128.8266 0014291 100.3443 259.9392 14.97532876232283
2018-099T               
1 43775U 18099T   23065.61698907  .00005622  00000+0  48866-3 0  9994
2 43775  97.5865 129.7761 0015158 106.3242 253.9648 14.97282041232214
MOVE-II                 
1 43780U 18099Y   23066.15341219  .00019798  00000+0  15397-2 0  9992
2 43780  97.5848 132.4615 0012627 131.9309 228.2994 15.01246382232411
SNUSAT-2                
1 43782U 18099AA  23065.40468584  .00010859  00000+0  91009-3 0  9990
2 43782  97.5887 130.2518 0013765 100.0440 260.2336 14.98500051232238
SNUGLITE                
1 43784U 18099AC  23066.12581894  .00012417  00000+0  10271-2 0  9995
2 43784  97.5831 130.5791 0016263 105.7890 254.5128 14.98944479232378
ITASAT 1                
1 43786U 18099AE  23066.16393354  .00009748  00000+0  82027-3 0  9995
2 43786  97.5880 131.5040 0014855 106.3544 253.9314 14.98359125232367
KAZSCISAT-1             
1 43787U 18099AF  23065.88961748  .00019113  00000+0  14961-2 0  9990
2 43787  97.5752 130.8277 0012697 120.6882 239.5596 15.01005202232413
EAGLET-I                
1 43790U 18099AJ  23066.18393337  .00007976  00000+0  67536-3 0  9992
2 43790  97.5875 132.0481 0014223 109.9780 250.2976 14.98185567232104
ESEO                    
1 43792U 18099AL  23066.12013218  .00005366  00000+0  46920-3 0  9990
2 43792  97.5828 130.7327 0014579 107.4826 252.7991 14.97076818232118
CSIM-FD                 
1 43793U 18099AM  23066.14774370  .00018607  00000+0  14257-2 0  9995
2 43793  97.5844 133.6338 0017773 111.6404 248.6716 15.01763003232258
ASTROCAST 0.1           
1 43798U 18099AS  23066.12818140  .00017853  00000+0  14129-2 0  9992
2 43798  97.5908 133.0529 0015303  82.1316 278.1645 15.00571215232453
JY1SAT (JO-97)          
1 43803U 18099AX  23066.13105543  .00013272  00000+0  10856-2 0  9990
2 43803  97.5863 131.3625 0016473 102.9351 257.3713 14.99355704232395
SUOMI-100               
1 43804U 18099AY  23066.17438627  .00011685  00000+0  96335-3 0  9990
2 43804  97.5831 131.2565 0014977 107.6213 252.6647 14.99102568232403
AL-FARABI 2             
1 43805U 18099AZ  23065.41857057  .00012774  00000+0  10195-2 0  9998
2 43805  97.5902 131.4173 0012066 102.5356 257.7220 15.00357930232332
CENTAURI-1              
1 43809U 18099BD  23066.15285377  .00008296  00000+0  69928-3 0  9997
2 43809  97.5863 131.4144 0015348 104.9366 255.3557 14.98333964232089
CHOMPTT                 
1 43855U 18104G   23066.20479736  .00040254  00000+0  11933-2 0  9997
2 43855  85.0295 235.2298 0013430 345.6858  14.4008 15.34580986234901
UWE-4                   
1 43880U 18111E   23066.19641693  .00013664  00000+0  10820-2 0  9993
2 43880  97.6494 333.0014 0015826 151.8995 208.3086 15.00606195227065
ZACUBE-2                
1 43907U 18111AH  23066.26501584  .00035007  00000+0  10372-2 0  9992
2 43907  97.1566 308.5807 0015547 217.6619 283.3582 15.34655683233481
MICRODRAGON             
1 43935U 19003D   23065.49673154  .00025681  00000+0  86556-3 0  9996
2 43935  97.1144  89.0717 0013638 328.2779  31.7639 15.30626227229706
AOBA VELOX-IV           
1 43940U 19003J   23066.16499213  .00643807  00000+0  34027-2 0  9990
2 43940  97.0807 102.6947 0006498 243.6701 116.3900 15.78884745230767
M6P                     
1 44109U 19018AF  23065.50153343  .00111958  00000+0  14949-2 0  9990
2 44109  97.3749 159.4451 0032722 253.2140 106.5524 15.57053107219932
FORMOSAT 7-4            
1 44350U 19036M   23065.22520620  .00017785  00000+0  97663-3 0  9991
2 44350  24.0015  20.1095 0005628 336.6678  23.3570 15.12328870203098
METEOR-M2 2             
1 44387U 19038A   23066.20171237  .00000161  00000+0  89871-4 0  9991
2 44387  98.7614  30.3795 0000611 187.7304 172.3867 14.23757395190794
VDNH-80                 
1 44392U 19038G   23066.21650662  .00034070  00000+0  13948-2 0  9998
2 44392  97.6667  44.6462 0014132 307.7474 107.8257 15.24143487202759
D-STAR ONE (LIGHTSAT)   
1 44393U 19038H   23066.19329719  .00040346  00000+0  16311-2 0  9992
2 44393  97.6669  44.5980 0013891 308.7433  51.2562 15.24528659202943
AMGU-1 (AMURSAT)        
1 44394U 19038J   23066.18163597  .00043181  00000+0  16958-2 0  9999
2 44394  97.6641  44.6820 0014161 309.7125  50.2875 15.25481430202951
DOT-1                   
1 44399U 19038P   23065.68204147  .00023213  00000+0  10819-2 0  9999
2 44399  97.6735  41.8493 0018981 318.6940  41.2857 15.19731058202691
SOKRAT                  
1 44404U 19038U   23065.69408830  .00040757  00000+0  16201-2 0  9995
2 44404  97.6654  43.7447 0013985 312.6298  47.3760 15.25092389202859
LUCKY-7                 
1 44406U 19038W   23065.45840715  .00027170  00000+0  12366-2 0  9995
2 44406  97.6722  42.1723 0018126 310.2895  49.6755 15.20529562202690
D-STAR ONE (EXOCONNECT) 
1 44410U 19038AA  23065.47518629  .00086977  00000+0  26580-2 0  9991
2 44410  97.6567  46.0114 0009553 304.8059  55.2283 15.33494824203016
NARSSCUBE-2             
1 44415U 19022E   23065.01618806  .00039151  00000+0  90076-3 0  9991
2 44415  51.6372 286.2091 0009390 274.6698  85.3215 15.42209651200354
DUCHIFAT-3              
1 44854U 19089C   23066.15267336  .00014081  00000+0  99805-3 0  9999
2 44854  36.9682 340.2406 0008468 219.6107 285.8051 15.04168079177456
OPS-SAT                 
1 44878U 19092F   23066.08554405  .00044544  00000+0  16176-2 0  9993
2 44878  97.4771 253.9272 0010180 141.8896 218.3065 15.28113405178163
FLORIPASAT-1            
1 44885U 19093G   23066.02062106  .00007229  00000+0  85693-3 0  9998
2 44885  97.8742 148.3720 0014725  58.4681 301.8030 14.84749372173784
HUSKYSAT-1 (HO-107)     
1 45119U 19071J   23065.90373575  .00304789  00000+0  18099-2 0  9992
2 45119  51.6278 191.4680 0007259 355.8334   4.2605 15.76544605174174
BY70-2                  
1 45857U 20042B   23066.35908980  .00037984  00000+0  43508-2 0  9998
2 45857  97.9305 146.2243 0008058 335.1710  25.0512 14.85786813144394
SALSAT                  
1 46495U 20068K   23065.41512380  .00010210  00000+0  69387-3 0  9993
2 46495  97.7588  12.4896 0017701 107.1141 253.2026 15.06430805133598
